{
    "links": {
        "self": "http://www.neowsapp.com/rest/v1/neo/3713997?api_key=iIulBulltgU6a56xZRHN4H3l9WmuAYTsLGpBGhQ2"
    },
    "id": "3713997",
    "neo_reference_id": "3713997",
    "name": "(2015 FK35)",
    "designation": "2015 FK35",
    "nasa_jpl_url": "http://ssd.jpl.nasa.gov/sbdb.cgi?sstr=3713997",
    "absolute_magnitude_h": 24.8,
    "estimated_diameter": {
        "kilometers": {
            "estimated_diameter_min": 0.0291443905,
            "estimated_diameter_max": 0.0651688382
        },
        "meters": {
            "estimated_diameter_min": 29.1443904535,
            "estimated_diameter_max": 65.1688382168
        },
        "miles": {
            "estimated_diameter_min": 0.018109479,
            "estimated_diameter_max": 0.0404940262
        },
        "feet": {
            "estimated_diameter_min": 95.6180819754,
            "estimated_diameter_max": 213.8085311752
        }
    },
    "is_potentially_hazardous_asteroid": false,
    "close_approach_data": [
        {
            "close_approach_date": "2015-03-02",
            "close_approach_date_full": "2015-Mar-02 07:46",
            "epoch_date_close_approach": 1425282360000,
            "relative_velocity": {
                "kilometers_per_second": "10.3085241056",
                "kilometers_per_hour": "37110.6867801553",
                "miles_per_hour": "23059.1375718137"
            },
            "miss_distance": {
                "astronomical": "0.0403220848",
                "lunar": "15.6852909872",
                "kilometers": "6032098.000039376",
                "miles": "3748171.8921843488"
            },
            "orbiting_body": "Earth"
        },
        {
            "close_approach_date": "2127-03-21",
            "close_approach_date_full": "2127-Mar-21 04:43",
            "epoch_date_close_approach": 4961277780000,
            "relative_velocity": {
                "kilometers_per_second": "18.2959134089",
                "kilometers_per_hour": "65865.2882719122",
                "miles_per_hour": "40926.128704289"
            },
            "miss_distance": {
                "astronomical": "0.2503979062",
                "lunar": "97.4047855118",
                "kilometers": "37458993.419979794",
                "miles": "23275939.1915333972"
            },
            "orbiting_body": "Earth"
        }
    ],
    "orbital_data": {
        "orbit_id": "5",
        "orbit_determination_date": "2017-04-06 08:34:55",
        "first_observation_date": "2015-03-21",
        "last_observation_date": "2015-03-29",
        "data_arc_in_days": 8,
        "observations_used": 17,
        "orbit_uncertainty": "9",
        "minimum_orbit_intersection": ".0296549",
        "jupiter_tisserand_invariant": "4.696",
        "epoch_osculation": "2457104.5",
        "eccentricity": ".4124219728617382",
        "semi_major_axis": "1.382434986766642",
        "inclination": "6.951582908069028",
        "ascending_node_longitude": "356.8592382048145",
        "orbital_period": "593.6978846248612",
        "perihelion_distance": ".8122884221712525",
        "perihelion_argument": "97.26058324173951",
        "aphelion_distance": "1.952581551362031",
        "perihelion_time": "2457034.297816059081",
        "mean_anomaly": "42.56842894884139",
        "mean_motion": ".6063690124607275",
        "equinox": "J2000",
        "orbit_class": {
            "orbit_class_type": "APO",
            "orbit_class_description": "Near-Earth asteroid orbits which cross the Earth’s orbit similar to that of 1862 Apollo",
            "orbit_class_range": "a (semi-major axis) > 1.0 AU; q (perihelion) < 1.017 AU"
        }
    },
    "is_sentry_object": false
}